[{"OBJECT_NAME":"STARLINK-32482","OBJECT_ID":"2024-224C","EPOCH":"2026-03-09T07:21:26.324352","MEAN_MOTION":15.27584526,"ECCENTRICITY":9.793e-5,"INCLINATION":43.0011,"RA_OF_ASC_NODE":160.0831,"ARG_OF_PERICENTER":256.7047,"MEAN_ANOMALY":103.3695,"EPHEMERIS_TYPE":0,"CLASSIFICATION_TYPE":"U","NORAD_CAT_ID":62141,"ELEMENT_SET_NO":999,"REV_AT_EPOCH":7226,"BSTAR":0.00057018125,"MEAN_MOTION_DOT":0.00015463,"MEAN_MOTION_DDOT":0},{"OBJECT_NAME":"ELECTRON KICK STAGE R\/B","OBJECT_ID":"2024-047B","EPOCH":"2026-03-09T21:11:54.433824","MEAN_MOTION":15.27307897,"ECCENTRICITY":0.00092426,"INCLINATION":97.6338,"RA_OF_ASC_NODE":46.9382,"ARG_OF_PERICENTER":20.6031,"MEAN_ANOMALY":339.5579,"EPHEMERIS_TYPE":0,"CLASSIFICATION_TYPE":"U","NORAD_CAT_ID":59225,"ELEMENT_SET_NO":999,"REV_AT_EPOCH":10999,"BSTAR":0.00091229405,"MEAN_MOTION_DOT":0.00024409,"MEAN_MOTION_DDOT":0}]
